SL-16 R/B               
1 24298U 96051B   25322.69235521 -.00000022  00000+0  15045-4 0  9996
2 24298  70.7608  50.1827 0018480 291.4318  68.4830 14.12393757505974
ORBVIEW 2 (SEASTAR)     
1 24883U 97037A   25322.44832720  .00000486  00000+0  18558-3 0  9992
2 24883  98.8450 118.9133 0002811  46.9957 313.1463 14.35391520492514
SL-16 R/B               
1 25400U 98043G   25322.80202649  .00000117  00000+0  68111-4 0  9999
2 25400  98.8085 270.4909 0009519 342.3507  17.7341 14.26017238423185
SL-16 R/B               
1 25407U 98045B   25322.67851573 -.00000096  00000+0 -24470-4 0  9997
2 25407  71.0123  55.0251 0008375 210.6906 149.3728 14.16168648411385
ISS (ZARYA)             
1 25544U 98067A   25322.35181354  .00014877  00000+0  27011-3 0  9994
2 25544  51.6332 263.1865 0004177  83.8870 276.2595 15.49788164539079
CZ-4B R/B               
1 25732U 99025C   25322.85494138  .00000116  00000+0  77256-4 0  9998
2 25732  98.6805   4.6651 0036174 304.6207 229.2686 14.18235158372456
OKEAN-O                 
1 25860U 99039A   25322.65540708  .00001010  00000+0  14010-3 0  9990
2 25860  97.9640  18.5621 0001262  67.2242 292.9103 14.80103824417969
SL-16 R/B               
1 25861U 99039B   25322.60616411  .00000871  00000+0  11780-3 0  9996
2 25861  98.0163  16.7520 0013522 256.7298 103.2407 14.81537017420419
DELTA 2 R/B             
1 25876U 99041E   25322.84899888  .00001560  00000+0  29030-3 0  9995
2 25876  51.7631  23.8079 0504905  21.3606 340.7606 14.11317644347375
HELIOS 1B               
1 25977U 99064A   25322.64959282  .00002796  00000+0  31762-3 0  9992
2 25977  98.1756 216.6029 0002538  75.2426 284.9070 14.87144248668753
TERRA                   
1 25994U 99068A   25322.83621270  .00000683  00000+0  14856-3 0  9997
2 25994  97.9784  15.3931 0002776 147.2251 302.0392 14.60913702378898
SL-16 R/B               
1 26070U 00006B   25322.73581006 -.00000163  00000+0 -58741-4 0  9995
2 26070  71.0023 331.1304 0017201 342.2306  17.8213 14.15801503332857
