CCSDS_OMM_VERS = 2.0
CREATION_DATE  = 
ORIGINATOR     = 

OBJECT_NAME    = SL-16 R/B
OBJECT_ID      = 1996-051B
CENTER_NAME    = EARTH
REF_FRAME      = TEME
TIME_SYSTEM    = UTC
MEAN_ELEMENT_THEORY = SGP/SGP4

EPOCH          = 2025-11-18T16:36:59.490144
MEAN_MOTION    = 14.12393757
ECCENTRICITY   = .001848
INCLINATION    = 70.7608
RA_OF_ASC_NODE = 50.1827
ARG_OF_PERICENTER = 291.4318
MEAN_ANOMALY   = 68.4830

EPHEMERIS_TYPE = 0
CLASSIFICATION_TYPE = U
NORAD_CAT_ID   = 24298
ELEMENT_SET_NO = 999
REV_AT_EPOCH   = 50597
BSTAR          = .15045E-4
MEAN_MOTION_DOT = -.22E-6
MEAN_MOTION_DDOT = 0

CCSDS_OMM_VERS = 2.0
CREATION_DATE  = 
ORIGINATOR     = 

OBJECT_NAME    = ORBVIEW 2 (SEASTAR)
OBJECT_ID      = 1997-037A
CENTER_NAME    = EARTH
REF_FRAME      = TEME
TIME_SYSTEM    = UTC
MEAN_ELEMENT_THEORY = SGP/SGP4

EPOCH          = 2025-11-18T10:45:35.470080
MEAN_MOTION    = 14.35391520
ECCENTRICITY   = .0002811
INCLINATION    = 98.8450
RA_OF_ASC_NODE = 118.9133
ARG_OF_PERICENTER = 46.9957
MEAN_ANOMALY   = 313.1463

EPHEMERIS_TYPE = 0
CLASSIFICATION_TYPE = U
NORAD_CAT_ID   = 24883
ELEMENT_SET_NO = 999
REV_AT_EPOCH   = 49251
BSTAR          = .18558E-3
MEAN_MOTION_DOT = .486E-5
MEAN_MOTION_DDOT = 0

CCSDS_OMM_VERS = 2.0
CREATION_DATE  = 
ORIGINATOR     = 

OBJECT_NAME    = SL-16 R/B
OBJECT_ID      = 1998-043G
CENTER_NAME    = EARTH
REF_FRAME      = TEME
TIME_SYSTEM    = UTC
MEAN_ELEMENT_THEORY = SGP/SGP4

EPOCH          = 2025-11-18T19:14:55.088736
MEAN_MOTION    = 14.26017238
ECCENTRICITY   = .0009519
INCLINATION    = 98.8085
RA_OF_ASC_NODE = 270.4909
ARG_OF_PERICENTER = 342.3507
MEAN_ANOMALY   = 17.7341

EPHEMERIS_TYPE = 0
CLASSIFICATION_TYPE = U
NORAD_CAT_ID   = 25400
ELEMENT_SET_NO = 999
REV_AT_EPOCH   = 42318
BSTAR          = .68111E-4
MEAN_MOTION_DOT = .117E-5
MEAN_MOTION_DDOT = 0

CCSDS_OMM_VERS = 2.0
CREATION_DATE  = 
ORIGINATOR     = 

OBJECT_NAME    = SL-16 R/B
OBJECT_ID      = 1998-045B
CENTER_NAME    = EARTH
REF_FRAME      = TEME
TIME_SYSTEM    = UTC
MEAN_ELEMENT_THEORY = SGP/SGP4

EPOCH          = 2025-11-18T16:17:03.759072
MEAN_MOTION    = 14.16168648
ECCENTRICITY   = .0008375
INCLINATION    = 71.0123
RA_OF_ASC_NODE = 55.0251
ARG_OF_PERICENTER = 210.6906
MEAN_ANOMALY   = 149.3728

EPHEMERIS_TYPE = 0
CLASSIFICATION_TYPE = U
NORAD_CAT_ID   = 25407
ELEMENT_SET_NO = 999
REV_AT_EPOCH   = 41138
BSTAR          = -.2447E-4
MEAN_MOTION_DOT = -.96E-6
MEAN_MOTION_DDOT = 0

CCSDS_OMM_VERS = 2.0
CREATION_DATE  = 
ORIGINATOR     = 

OBJECT_NAME    = ISS (ZARYA)
OBJECT_ID      = 1998-067A
CENTER_NAME    = EARTH
REF_FRAME      = TEME
TIME_SYSTEM    = UTC
MEAN_ELEMENT_THEORY = SGP/SGP4

EPOCH          = 2025-11-18T08:26:36.689856
MEAN_MOTION    = 15.49788164
ECCENTRICITY   = .0004177
INCLINATION    = 51.6332
RA_OF_ASC_NODE = 263.1865
ARG_OF_PERICENTER = 83.8870
MEAN_ANOMALY   = 276.2595

EPHEMERIS_TYPE = 0
CLASSIFICATION_TYPE = U
NORAD_CAT_ID   = 25544
ELEMENT_SET_NO = 999
REV_AT_EPOCH   = 53907
BSTAR          = .27011E-3
MEAN_MOTION_DOT = .14877E-3
MEAN_MOTION_DDOT = 0

CCSDS_OMM_VERS = 2.0
CREATION_DATE  = 
ORIGINATOR     = 

OBJECT_NAME    = CZ-4B R/B
OBJECT_ID      = 1999-025C
CENTER_NAME    = EARTH
REF_FRAME      = TEME
TIME_SYSTEM    = UTC
MEAN_ELEMENT_THEORY = SGP/SGP4

EPOCH          = 2025-11-18T20:31:06.935232
MEAN_MOTION    = 14.18235158
ECCENTRICITY   = .0036174
INCLINATION    = 98.6805
RA_OF_ASC_NODE = 4.6651
ARG_OF_PERICENTER = 304.6207
MEAN_ANOMALY   = 229.2686

EPHEMERIS_TYPE = 0
CLASSIFICATION_TYPE = U
NORAD_CAT_ID   = 25732
ELEMENT_SET_NO = 999
REV_AT_EPOCH   = 37245
BSTAR          = .77256E-4
MEAN_MOTION_DOT = .116E-5
MEAN_MOTION_DDOT = 0

CCSDS_OMM_VERS = 2.0
CREATION_DATE  = 
ORIGINATOR     = 

OBJECT_NAME    = OKEAN-O
OBJECT_ID      = 1999-039A
CENTER_NAME    = EARTH
REF_FRAME      = TEME
TIME_SYSTEM    = UTC
MEAN_ELEMENT_THEORY = SGP/SGP4

EPOCH          = 2025-11-18T15:43:47.171712
MEAN_MOTION    = 14.80103824
ECCENTRICITY   = .0001262
INCLINATION    = 97.9640
RA_OF_ASC_NODE = 18.5621
ARG_OF_PERICENTER = 67.2242
MEAN_ANOMALY   = 292.9103

EPHEMERIS_TYPE = 0
CLASSIFICATION_TYPE = U
NORAD_CAT_ID   = 25860
ELEMENT_SET_NO = 999
REV_AT_EPOCH   = 41796
BSTAR          = .1401E-3
MEAN_MOTION_DOT = .101E-4
MEAN_MOTION_DDOT = 0

CCSDS_OMM_VERS = 2.0
CREATION_DATE  = 
ORIGINATOR     = 

OBJECT_NAME    = SL-16 R/B
OBJECT_ID      = 1999-039B
CENTER_NAME    = EARTH
REF_FRAME      = TEME
TIME_SYSTEM    = UTC
MEAN_ELEMENT_THEORY = SGP/SGP4

EPOCH          = 2025-11-18T14:32:52.579104
MEAN_MOTION    = 14.81537017
ECCENTRICITY   = .0013522
INCLINATION    = 98.0163
RA_OF_ASC_NODE = 16.7520
ARG_OF_PERICENTER = 256.7298
MEAN_ANOMALY   = 103.2407

EPHEMERIS_TYPE = 0
CLASSIFICATION_TYPE = U
NORAD_CAT_ID   = 25861
ELEMENT_SET_NO = 999
REV_AT_EPOCH   = 42041
BSTAR          = .1178E-3
MEAN_MOTION_DOT = .871E-5
MEAN_MOTION_DDOT = 0

CCSDS_OMM_VERS = 2.0
CREATION_DATE  = 
ORIGINATOR     = 

OBJECT_NAME    = DELTA 2 R/B
OBJECT_ID      = 1999-041E
CENTER_NAME    = EARTH
REF_FRAME      = TEME
TIME_SYSTEM    = UTC
MEAN_ELEMENT_THEORY = SGP/SGP4

EPOCH          = 2025-11-18T20:22:33.503232
MEAN_MOTION    = 14.11317644
ECCENTRICITY   = .0504905
INCLINATION    = 51.7631
RA_OF_ASC_NODE = 23.8079
ARG_OF_PERICENTER = 21.3606
MEAN_ANOMALY   = 340.7606

EPHEMERIS_TYPE = 0
CLASSIFICATION_TYPE = U
NORAD_CAT_ID   = 25876
ELEMENT_SET_NO = 999
REV_AT_EPOCH   = 34737
BSTAR          = .2903E-3
MEAN_MOTION_DOT = .156E-4
MEAN_MOTION_DDOT = 0

CCSDS_OMM_VERS = 2.0
CREATION_DATE  = 
ORIGINATOR     = 

OBJECT_NAME    = HELIOS 1B
OBJECT_ID      = 1999-064A
CENTER_NAME    = EARTH
REF_FRAME      = TEME
TIME_SYSTEM    = UTC
MEAN_ELEMENT_THEORY = SGP/SGP4

EPOCH          = 2025-11-18T15:35:24.819648
MEAN_MOTION    = 14.87144248
ECCENTRICITY   = .0002538
INCLINATION    = 98.1756
RA_OF_ASC_NODE = 216.6029
ARG_OF_PERICENTER = 75.2426
MEAN_ANOMALY   = 284.9070

EPHEMERIS_TYPE = 0
CLASSIFICATION_TYPE = U
NORAD_CAT_ID   = 25977
ELEMENT_SET_NO = 999
REV_AT_EPOCH   = 66875
BSTAR          = .31762E-3
MEAN_MOTION_DOT = .2796E-4
MEAN_MOTION_DDOT = 0

CCSDS_OMM_VERS = 2.0
CREATION_DATE  = 
ORIGINATOR     = 

OBJECT_NAME    = TERRA
OBJECT_ID      = 1999-068A
CENTER_NAME    = EARTH
REF_FRAME      = TEME
TIME_SYSTEM    = UTC
MEAN_ELEMENT_THEORY = SGP/SGP4

EPOCH          = 2025-11-18T20:04:08.777280
MEAN_MOTION    = 14.60913702
ECCENTRICITY   = .0002776
INCLINATION    = 97.9784
RA_OF_ASC_NODE = 15.3931
ARG_OF_PERICENTER = 147.2251
MEAN_ANOMALY   = 302.0392

EPHEMERIS_TYPE = 0
CLASSIFICATION_TYPE = U
NORAD_CAT_ID   = 25994
ELEMENT_SET_NO = 999
REV_AT_EPOCH   = 37889
BSTAR          = .14856E-3
MEAN_MOTION_DOT = .683E-5
MEAN_MOTION_DDOT = 0

CCSDS_OMM_VERS = 2.0
CREATION_DATE  = 
ORIGINATOR     = 

OBJECT_NAME    = SL-16 R/B
OBJECT_ID      = 2000-006B
CENTER_NAME    = EARTH
REF_FRAME      = TEME
TIME_SYSTEM    = UTC
MEAN_ELEMENT_THEORY = SGP/SGP4

EPOCH          = 2025-11-18T17:39:33.989184
MEAN_MOTION    = 14.15801503
ECCENTRICITY   = .0017201
INCLINATION    = 71.0023
RA_OF_ASC_NODE = 331.1304
ARG_OF_PERICENTER = 342.2306
MEAN_ANOMALY   = 17.8213

EPHEMERIS_TYPE = 0
CLASSIFICATION_TYPE = U
NORAD_CAT_ID   = 26070
ELEMENT_SET_NO = 999
REV_AT_EPOCH   = 33285
BSTAR          = -.58741E-4
MEAN_MOTION_DOT = -.163E-5
MEAN_MOTION_DDOT = 0

